{"fetched_at":"2026-03-29T16:36:15Z","count":15609,"tles":[{"name":"STARLINK-2121","line1":"1 47399U 21005BC  26087.89677149  .00009405  00000+0  32901-3 0  9999","line2":"2 47399  53.1594 307.4919 0001193 101.0918 259.0217 15.30223443286333","category":"Starlink"}]}